{"type": "FeatureCollection", "features": [ {"type": "Feature", "properties": {"norad_id": 66767, "name": "TRANSPORTER-15 DF", "group": "last-30-days", "lat": 61.92909940481884, "lon": -97.83009715940345, "alt_km": 503.72071596446585, "timestamp": "2025-12-22T08:58:19.047073+00:00", "meta": {"OBJECT_NAME": "TRANSPORTER-15 DF", "OBJECT_ID": "2025-276DF", "EPOCH": "2025-12-22T03:42:46.836000", "MEAN_MOTION": 15.18297802, "ECCENTRICITY": 0.0002057, "INCLINATION": 97.4374, "RA_OF_ASC_NODE": 67.7755, "ARG_OF_PERICENTER": 90.1675, "MEAN_ANOMALY": 269.9795, "EPHEMERIS_TYPE": 0, "CLASSIFICATION_TYPE": "U", "NORAD_CAT_ID": 66767, "ELEMENT_SET_NO": 999, "REV_AT_EPOCH": 355, "BSTAR": 0.00036834, "MEAN_MOTION_DOT": 7.489e-05, "MEAN_MOTION_DDOT": 0}, "tle": {"line1": "1 66767U 25276DF  25356.15470875  .00007489  00000+0  36834-3 0  9996", "line2": "2 66767  97.4374  67.7755 0002057  90.1675 269.9795 15.18297802  3550"}}, "geometry": {"type": "Point", "coordinates": [-97.83009715940345, 61.92909940481884]}}, {"type": "Feature", "properties": {"norad_id": 66768, "name": "TRANSPORTER-15 DG", "group": "last-30-days", "lat": 51.049810547217284, "lon": -102.71036664764179, "alt_km": 504.7329202395522, "timestamp": "2025-12-22T08:58:19.047083+00:00", "meta": {"OBJECT_NAME": "TRANSPORTER-15 DG", "OBJECT_ID": "2025-276DG", "EPOCH": "2025-12-22T03:39:52.783200", "MEAN_MOTION": 15.18506881, "ECCENTRICITY": 0.0002215, "INCLINATION": 97.4355, "RA_OF_ASC_NODE": 67.7746, "ARG_OF_PERICENTER": 77.1714, "MEAN_ANOMALY": 282.9767, "EPHEMERIS_TYPE": 0, "CLASSIFICATION_TYPE": "U", "NORAD_CAT_ID": 66768, "ELEMENT_SET_NO": 999, "REV_AT_EPOCH": 355, "BSTAR": 0.00059684, "MEAN_MOTION_DOT": 0.00012257, "MEAN_MOTION_DDOT": 0}, "tle": {"line1": "1 66768U 25276DG  25356.15269425  .00012257  00000+0  59684-3 0  9991", "line2": "2 66768  97.4355  67.7746 0002215  77.1714 282.9767 15.18506881  3559"}}, "geometry": {"type": "Point", "coordinates": [-102.71036664764179, 51.049810547217284]}}, {"type": "Feature", "properties": {"norad_id": 66769, "name": "TRANSPORTER-15 DH", "group": "last-30-days", "lat": 55.61954989556822, "lon": -100.9790133421433, "alt_km": 503.6674655068846, "timestamp": "2025-12-22T08:58:19.047093+00:00", "meta": {"OBJECT_NAME": "TRANSPORTER-15 DH", "OBJECT_ID": "2025-276DH", "EPOCH": "2025-12-22T03:41:05.142336", "MEAN_MOTION": 15.18391464, "ECCENTRICITY": 0.0002665, "INCLINATION": 97.442, "RA_OF_ASC_NODE": 67.7906, "ARG_OF_PERICENTER": 108.3723, "MEAN_ANOMALY": 251.7801, "EPHEMERIS_TYPE": 0, "CLASSIFICATION_TYPE": "U", "NORAD_CAT_ID": 66769, "ELEMENT_SET_NO": 999, "REV_AT_EPOCH": 355, "BSTAR": 0.00028129, "MEAN_MOTION_DOT": 5.717e-05, "MEAN_MOTION_DDOT": 0}, "tle": {"line1": "1 66769U 25276DH  25356.15353174  .00005717  00000+0  28129-3 0  9990", "line2": "2 66769  97.4420  67.7906 0002665 108.3723 251.7801 15.18391464  3559"}}, "geometry": {"type": "Point", "coordinates": [-100.9790133421433, 55.61954989556822]}}, {"type": "Feature", "properties": {"norad_id": 66770, "name": "TRANSPORTER-15 DJ", "group": "last-30-days", "lat": 53.79648682630582, "lon": -101.68971306927706, "alt_km": 503.51407601441315, "timestamp": "2025-12-22T08:58:19.047107+00:00", "meta": {"OBJECT_NAME": "TRANSPORTER-15 DJ", "OBJECT_ID": "2025-276DJ", "EPOCH": "2025-12-22T03:40:35.463936", "MEAN_MOTION": 15.1838867, "ECCENTRICITY": 0.0003128, "INCLINATION": 97.4457, "RA_OF_ASC_NODE": 67.8011, "ARG_OF_PERICENTER": 125.7783, "MEAN_ANOMALY": 234.3742, "EPHEMERIS_TYPE": 0, "CLASSIFICATION_TYPE": "U", "NORAD_CAT_ID": 66770, "ELEMENT_SET_NO": 999, "REV_AT_EPOCH": 355, "BSTAR": 0.000467, "MEAN_MOTION_DOT": 9.541e-05, "MEAN_MOTION_DDOT": 0}, "tle": {"line1": "1 66770U 25276DJ  25356.15318824  .00009541  00000+0  46700-3 0  9999", "line2": "2 66770  97.4457  67.8011 0003128 125.7783 234.3742 15.18388670  3559"}}, "geometry": {"type": "Point", "coordinates": [-101.68971306927706, 53.79648682630582]}}, {"type": "Feature", "properties": {"norad_id": 66771, "name": "TRANSPORTER-15 DK", "group": "last-30-days", "lat": 51.66330140995341, "lon": -102.46561690460113, "alt_km": 503.79805407512504, "timestamp": "2025-12-22T08:58:19.047116+00:00", "meta": {"OBJECT_NAME": "TRANSPORTER-15 DK", "OBJECT_ID": "2025-276DK", "EPOCH": "2025-12-22T03:40:01.905312", "MEAN_MOTION": 15.1845389, "ECCENTRICITY": 0.0002899, "INCLINATION": 97.4448, "RA_OF_ASC_NODE": 67.7988, "ARG_OF_PERICENTER": 116.9806, "MEAN_ANOMALY": 243.1725, "EPHEMERIS_TYPE": 0, "CLASSIFICATION_TYPE": "U", "NORAD_CAT_ID": 66771, "ELEMENT_SET_NO": 999, "REV_AT_EPOCH": 355, "BSTAR": 0.00044335, "MEAN_MOTION_DOT": 9.07e-05, "MEAN_MOTION_DDOT": 0}, "tle": {"line1": "1 66771U 25276DK  25356.15279983  .00009070  00000+0  44335-3 0  9991", "line2": "2 66771  97.4448  67.7988 0002899 116.9806 243.1725 15.18453890  3550"}}, "geometry": {"type": "Point", "coordinates": [-102.46561690460113, 51.66330140995341]}}, {"type": "Feature", "properties": {"norad_id": 66772, "name": "TRANSPORTER-15 DL", "group": "last-30-days", "lat": 39.554410696147805, "lon": -105.7822796002979, "alt_km": 505.26505017171075, "timestamp": "2025-12-22T08:58:19.047126+00:00", "meta": {"OBJECT_NAME": "TRANSPORTER-15 DL", "OBJECT_ID": "2025-276DL", "EPOCH": "2025-12-22T03:36:50.260608", "MEAN_MOTION": 15.18670225, "ECCENTRICITY": 0.0002892, "INCLINATION": 97.4437, "RA_OF_ASC_NODE": 67.7987, "ARG_OF_PERICENTER": 104.426, "MEAN_ANOMALY": 255.7295, "EPHEMERIS_TYPE": 0, "CLASSIFICATION_TYPE": "U", "NORAD_CAT_ID": 66772, "ELEMENT_SET_NO": 999, "REV_AT_EPOCH": 355, "BSTAR": 0.00059598, "MEAN_MOTION_DOT": 0.00012298, "MEAN_MOTION_DDOT": 0}, "tle": {"line1": "1 66772U 25276DL  25356.15058172  .00012298  00000+0  59598-3 0  9990", "line2": "2 66772  97.4437  67.7987 0002892 104.4260 255.7295 15.18670225  3551"}}, "geometry": {"type": "Point", "coordinates": [-105.7822796002979, 39.554410696147805]}}, {"type": "Feature", "properties": {"norad_id": 66773, "name": "TRANSPORTER-15 DM", "group": "last-30-days", "lat": 45.63695551531713, "lon": -104.30243671051015, "alt_km": 504.64734372748535, "timestamp": "2025-12-22T08:58:19.047137+00:00", "meta": {"OBJECT_NAME": "TRANSPORTER-15 DM", "OBJECT_ID": "2025-276DM", "EPOCH": "2025-12-22T03:38:25.893312", "MEAN_MOTION": 15.18518714, "ECCENTRICITY": 0.000297, "INCLINATION": 97.4435, "RA_OF_ASC_NODE": 67.7966, "ARG_OF_PERICENTER": 103.9903, "MEAN_ANOMALY": 256.1661, "EPHEMERIS_TYPE": 0, "CLASSIFICATION_TYPE": "U", "NORAD_CAT_ID": 66773, "ELEMENT_SET_NO": 999, "REV_AT_EPOCH": 355, "BSTAR": 0.00053247, "MEAN_MOTION_DOT": 0.0001093, "MEAN_MOTION_DDOT": 0}, "tle": {"line1": "1 66773U 25276DM  25356.15168858  .00010930  00000+0  53247-3 0  9990", "line2": "2 66773  97.4435  67.7966 0002970 103.9903 256.1661 15.18518714  3558"}}, "geometry": {"type": "Point", "coordinates": [-104.30243671051015, 45.63695551531713]}}, {"type": "Feature", "properties": {"norad_id": 66774, "name": "TRANSPORTER-15 DN", "group": "last-30-days", "lat": 43.078061320675246, "lon": -104.9673194977085, "alt_km": 505.0247324477041, "timestamp": "2025-12-22T08:58:19.047147+00:00", "meta": {"OBJECT_NAME": "TRANSPORTER-15 DN", "OBJECT_ID": "2025-276DN", "EPOCH": "2025-12-22T03:37:45.503040", "MEAN_MOTION": 15.18570587, "ECCENTRICITY": 0.000292, "INCLINATION": 97.4419, "RA_OF_ASC_NODE": 67.7931, "ARG_OF_PERICENTER": 100.2386, "MEAN_ANOMALY": 259.9178, "EPHEMERIS_TYPE": 0, "CLASSIFICATION_TYPE": "U", "NORAD_CAT_ID": 66774, "ELEMENT_SET_NO": 999, "REV_AT_EPOCH": 355, "BSTAR": 0.00055492, "MEAN_MOTION_DOT": 0.00011412, "MEAN_MOTION_DDOT": 0}, "tle": {"line1": "1 66774U 25276DN  25356.15122110  .00011412  00000+0  55492-3 0  9992", "line2": "2 66774  97.4419  67.7931 0002920 100.2386 259.9178 15.18570587  3553"}}, "geometry": {"type": "Point", "coordinates": [-104.9673194977085, 43.078061320675246]}}, {"type": "Feature", "properties": {"norad_id": 66775, "name": "TRANSPORTER-15 DP", "group": "last-30-days", "lat": 39.036015567287805, "lon": -105.92892127191291, "alt_km": 506.3609529079449, "timestamp": "2025-12-22T08:58:19.047157+00:00", "meta": {"OBJECT_NAME": "TRANSPORTER-15 DP", "OBJECT_ID": "2025-276DP", "EPOCH": "2025-12-22T03:36:41.682816", "MEAN_MOTION": 15.18637667, "ECCENTRICITY": 0.000285, "INCLINATION": 97.4345, "RA_OF_ASC_NODE": 67.7737, "ARG_OF_PERICENTER": 71.7917, "MEAN_ANOMALY": 288.3627, "EPHEMERIS_TYPE": 0, "CLASSIFICATION_TYPE": "U", "NORAD_CAT_ID": 66775, "ELEMENT_SET_NO": 999, "REV_AT_EPOCH": 355, "BSTAR": 0.00061768, "MEAN_MOTION_DOT": 0.00012737, "MEAN_MOTION_DDOT": 0}, "tle": {"line1": "1 66775U 25276DP  25356.15048244  .00012737  00000+0  61768-3 0  9992", "line2": "2 66775  97.4345  67.7737 0002850  71.7917 288.3627 15.18637667  3558"}}, "geometry": {"type": "Point", "coordinates": [-105.92892127191291, 39.036015567287805]}}, {"type": "Feature", "properties": {"norad_id": 66776, "name": "TRANSPORTER-15 DQ", "group": "last-30-days", "lat": 37.1821168855938, "lon": -106.3078384039587, "alt_km": 506.1486035698408, "timestamp": "2025-12-22T08:58:19.047169+00:00", "meta": {"OBJECT_NAME": "TRANSPORTER-15 DQ", "OBJECT_ID": "2025-276DQ", "EPOCH": "2025-12-22T03:36:12.464928", "MEAN_MOTION": 15.186756, "ECCENTRICITY": 0.0002864, "INCLINATION": 97.4385, "RA_OF_ASC_NODE": 67.7844, "ARG_OF_PERICENTER": 86.289, "MEAN_ANOMALY": 273.8671, "EPHEMERIS_TYPE": 0, "CLASSIFICATION_TYPE": "U", "NORAD_CAT_ID": 66776, "ELEMENT_SET_NO": 999, "REV_AT_EPOCH": 355, "BSTAR": 0.00053667, "MEAN_MOTION_DOT": 0.00011067, "MEAN_MOTION_DDOT": 0}, "tle": {"line1": "1 66776U 25276DQ  25356.15014427  .00011067  00000+0  53667-3 0  9993", "line2": "2 66776  97.4385  67.7844 0002864  86.2890 273.8671 15.18675600  3555"}}, "geometry": {"type": "Point", "coordinates": [-106.3078384039587, 37.1821168855938]}}]}